SKYSAT-A                
1 39418U 13066C   22282.44574268  .00003177  00000+0  25703-3 0  9994
2 39418  97.5393 350.8785 0028094 231.3230 128.5480 15.00166384485746
SKYSAT-B                
1 40072U 14037D   22282.55544855  .00001433  00000+0  18861-3 0  9992
2 40072  98.3903 156.6150 0005509 319.3537  40.7263 14.81855312446140
SKYSAT-C1               
1 41601U 16040C   22282.46214516  .00019098  00000+0  50638-3 0  9999
2 41601  97.1463 354.9530 0004163  86.8312 273.3410 15.38356096351527
FLOCK 2P-9              
1 41610U 16040M   22282.41634794  .00081879  00000+0  19510-2 0  9997
2 41610  97.2175 338.7742 0007512  62.5416 297.6594 15.41257673350560
FLOCK 2P-8              
1 41613U 16040Q   22282.13573794  .00076307  00000+0  18537-2 0  9999
2 41613  97.2227 339.4921 0008162  64.7132 295.4960 15.40691008350677
FLOCK 2P-3              
1 41618U 16040V   22282.16772334  .00073834  00000+0  17419-2 0  9998
2 41618  97.2249 340.2198 0008317  75.5204 284.6966 15.41586343350698
SKYSAT-C4               
1 41771U 16058B   22282.42357215  .00017784  00000+0  47241-3 0  9992
2 41771  97.1074 344.2460 0001399 144.2867 215.8473 15.38319661338475
SKYSAT-C5               
1 41772U 16058C   22282.46553560  .00011012  00000+0  41069-3 0  9998
2 41772  97.2539 342.9373 0001895 100.0537 260.0916 15.27585156337178
SKYSAT-C2               
1 41773U 16058D   22282.14299177  .00017696  00000+0  47008-3 0  9998
2 41773  97.1091 344.3731 0003746 105.4981 254.6679 15.38314557338458
SKYSAT-C3               
1 41774U 16058E   22282.44912405  .00025883  00000+0  58846-3 0  9997
2 41774  97.1078 345.6811 0001730  51.9241 308.2163 15.42976833338564
FLOCK 3P-24             
1 41956U 17008J   22282.44929724  .00020200  00000+0  57803-3 0  9997
2 41956  97.2720 350.6945 0007300 145.0282 215.1443 15.35958164314801
FLOCK 3P-4              
1 41965U 17008T   22282.46579111  .00187857  00000+0  35790-2 0  9992
2 41965  97.2627 348.0921 0007064 190.2497 169.8611 15.47469679314565
FLOCK 3P-2              
1 41966U 17008U   22282.45369848  .00156577  00000+0  34555-2 0  9999
2 41966  97.2649 347.7756 0006405 178.1661 181.9612 15.43267135314440
FLOCK 3P-3              
1 41968U 17008W   22282.44337550  .00025492  00000+0  71239-3 0  9997
2 41968  97.2667 347.5629 0006696 161.2334 198.9159 15.36655974314517
FLOCK 3P-12             
1 41972U 17008AA  22282.45890011  .00169338  00000+0  35324-2 0  9991
2 41972  97.2636 347.9372 0005907 175.4167 184.7137 15.44893136314536
FLOCK 3P-11             
1 41975U 17008AD  22282.45440156  .00173013  00000+0  35507-2 0  9993
2 41975  97.2629 347.8150 0006081 173.9936 186.1387 15.45358788314426
FLOCK 3P-58             
1 41977U 17008AF  22282.45541910  .00189637  00000+0  34445-2 0  9994
2 41977  97.2639 348.5564 0006754 190.5859 169.5251 15.48842838314659
FLOCK 3P-57             
1 41978U 17008AG  22282.47751821  .00186871  00000+0  36440-2 0  9995
2 41978  97.2637 348.2848 0007599 185.8720 174.2442 15.46793552314484
FLOCK 3P-34             
1 41988U 17008AS  22282.44838507  .00139717  00000+0  33536-2 0  9990
2 41988  97.2683 348.1825 0006818 162.5073 197.6410 15.40802523313932
FLOCK 3P-33             
1 41990U 17008AU  22282.45814232  .00022016  00000+0  69512-3 0  9990
2 41990  97.2671 345.7951 0006239 166.4505 193.6906 15.32832953313785
FLOCK 3P-49             
1 42001U 17008BF  22282.44929498  .00145320  00000+0  33568-2 0  9999
2 42001  97.2649 348.1379 0005274 194.0191 166.0911 15.41948811314468
FLOCK 3P-61             
1 42009U 17008BP  22282.43607788  .00157184  00000+0  33090-2 0  9992
2 42009  97.2649 347.9848 0005793 192.5056 167.6050 15.44670567314580
FLOCK 3P-54             
1 42014U 17008BU  22282.42058690  .00137918  00000+0  31452-2 0  9992
2 42014  97.2665 347.7613 0005249 189.6121 170.5027 15.42364691314592
FLOCK 3P-23             
1 42018U 17008BY  22282.43133706  .00152573  00000+0  33071-2 0  9992
2 42018  97.2636 347.6088 0006528 176.0299 184.1002 15.43818330313370
FLOCK 3P-76             
1 42019U 17008BZ  22282.46227537  .00132050  00000+0  29966-2 0  9998
2 42019  97.2708 348.9283 0007173 177.6162 182.5121 15.42524894314446
FLOCK 3P-32             
1 42023U 17008CD  22282.41275493  .00152962  00000+0  33835-2 0  9996
2 42023  97.2646 347.8061 0006566 179.1808 180.9452 15.43211724314606
FLOCK 3P-80             
1 42026U 17008CG  22282.43877074  .00136408  00000+0  31790-2 0  9999
2 42026  97.2693 348.3990 0005362 192.0465 168.0655 15.41716980312572
FLOCK 3P-66             
1 42027U 17008CH  22282.48864225  .00145139  00000+0  33439-2 0  9992
2 42027  97.2660 347.6635 0005618 179.0753 181.0505 15.42026371314541
FLOCK 3P-65             
1 42028U 17008CJ  22282.41002276  .00150769  00000+0  33150-2 0  9991
2 42028  97.2656 348.0534 0006658 197.5156 162.5863 15.43399210314454
FLOCK 3P-50             
1 42029U 17008CK  22282.43448387  .00150657  00000+0  33429-2 0  9996
2 42029  97.2666 348.1474 0006219 199.7146 160.3862 15.43129808313779
FLOCK 3P-46             
1 42031U 17008CM  22282.48955338  .00150888  00000+0  34290-2 0  9996
2 42031  97.2642 347.6307 0005308 183.6828 176.4382 15.42417427314606
FLOCK 3P-64             
1 42034U 17008CQ  22282.45507604  .00158747  00000+0  34653-2 0  9990
2 42034  97.2631 347.7969 0006554 198.7319 161.3689 15.43583855314601
FLOCK 3P-55             
1 42041U 17008CX  22282.42909050  .00149202  00000+0  33164-2 0  9998
2 42041  97.2639 347.8145 0006338 204.1779 155.9172 15.43082695314619
FLOCK 3P-74             
1 42048U 17008DE  22282.46080152  .00080072  00000+0  19860-2 0  9998
2 42048  97.2702 348.4116 0007060 154.5954 205.5640 15.40050824313749
SKYSAT-C11              
1 42987U 17068A   22282.59257683  .00021234  00000+0  56207-3 0  9997
2 42987  97.3030  40.8170 0001366 178.0618 182.0633 15.38396813275937
SKYSAT-C10              
1 42988U 17068B   22282.30010391  .00021370  00000+0  56646-3 0  9998
2 42988  97.3075  40.8414 0002898  99.9294 260.2279 15.38349430275916
SKYSAT-C9               
1 42989U 17068C   22282.28803865  .00021201  00000+0  56083-3 0  9990
2 42989  97.3008  39.8861 0002201 214.8494 145.2607 15.38416623276103
SKYSAT-C8               
1 42990U 17068D   22282.28105796  .00021697  00000+0  57346-3 0  9992
2 42990  97.3087  41.2526 0002164  32.2617 327.8761 15.38438704275937
SKYSAT-C7               
1 42991U 17068E   22282.58362491  .00021786  00000+0  57638-3 0  9996
2 42991  97.3091  41.6368 0001083 165.2352 194.8925 15.38408295275984
SKYSAT-C6               
1 42992U 17068F   22282.31386583  .00021494  00000+0  56957-3 0  9995
2 42992  97.3112  41.7821 0001658 206.7101 153.4059 15.38360973275951
FLOCK 3M-4              
1 42997U 17068L   22282.57995542  .00115733  00000+0  33740-2 0  9993
2 42997  97.4705  37.5140 0011223   8.2937 351.8489 15.34846270274363
FLOCK 3P'-3             
1 43119U 18004J   22282.20084567  .00014459  00000+0  52241-3 0  9998
2 43119  97.3669 354.9858 0007991 331.2072  28.8725 15.28542385263585
FLOCK 3P'-2             
1 43120U 18004K   22282.17265811  .00013403  00000+0  49045-3 0  9995
2 43120  97.3672 354.5093 0007891 332.6601  27.4222 15.28142721263543
FLOCK 3P'-4             
1 43122U 18004M   22282.42127126  .00014018  00000+0  51312-3 0  9994
2 43122  97.3678 354.9360 0007804 334.1141  25.9707 15.28121652263587
FLOCK 3R-9              
1 43723U 18096E   22282.25559299  .00437506  00000+0  37138-2 0  9993
2 43723  97.3482  10.6781 0009719 314.3032 107.6703 15.68275732215984
FLOCK 3R-12             
1 43724U 18096F   22282.22787015  .00132899  00000+0  19637-2 0  9991
2 43724  97.3514   8.9464 0009598 353.2452   6.8671 15.54819788215863
FLOCK 3R-11             
1 43725U 18096G   22282.48876585  .00286884  00000+0  40372-2 0  9995
2 43725  97.3523   9.4761 0009137 349.3083  10.7975 15.55627570215920
FLOCK 3R-4              
1 43733U 18096Q   22282.52509870  .00265767  00000+0  36873-2 0  9997
2 43733  97.3552   9.8529 0014615 356.3143  16.2306 15.56017747215939
FLOCK 3R-6              
1 43741U 18096Y   22282.45358975  .00545238  00000+0  42587-2 0  9999
2 43741  97.3479  11.1998 0012468 313.6476 108.2744 15.69968816216037
FLOCK 3R-7              
1 43742U 18096Z   22282.32731144  .00312544  00000+0  36752-2 0  9998
2 43742  97.3523  10.1554 0009340 337.1786  66.0540 15.60357711215946
FLOCK 3R-1              
1 43747U 18096AE  22282.24091637  .00638303  00000+0  45356-2 0  9994
2 43747  97.3500  11.6115 0013315 322.4701  37.5632 15.71974159216035
FLOCK 3S-1              
1 43769U 18099M   22282.43810445  .00003154  00000+0  28206-3 0  9994
2 43769  97.6090 345.1176 0012755 248.8474 111.1385 14.96517112210051
SKYSAT-C12              
1 43797U 18099AR  22282.44715299  .00018020  00000+0  47744-3 0  9993
2 43797  97.1158 345.9679 0003765  44.0650 316.0895 15.38390771215000
SKYSAT-C13              
1 43802U 18099AW  22282.14974446  .00013328  00000+0  35317-3 0  9997
2 43802  97.1430 344.4402 0001960 109.3310 250.8147 15.38457704214443
FLOCK 3K-4              
1 43893U 18111T   22282.25155865  .00209049  00000+0  36666-2 0  9994
2 43893  97.1735 171.6070 0011765  36.5299 323.6753 15.49727031211144
FLOCK 3K-5              
1 43899U 18111Z   22282.47320281  .00189577  00000+0  37394-2 0  9992
2 43899  97.1749 170.9227 0014210  32.2936 327.9181 15.46377336211115
FLOCK 3K-7              
1 43902U 18111AC  22282.48955079  .00169979  00000+0  35944-2 0  9990
2 43902  97.1755 171.0157 0014415  23.1231 337.0664 15.44403267211125
FLOCK 3K-10             
1 43905U 18111AF  22282.47959789  .00213855  00000+0  37891-2 0  9990
2 43905  97.1733 171.9183 0010087  29.1337 331.0476 15.49438767211185
FLOCK 3K-9              
1 43906U 18111AG  22282.49261904  .00180899  00000+0  36711-2 0  9999
2 43906  97.1744 170.9326 0013842  29.2275 330.9746 15.45583111211122
FLOCK 4A-2              
1 44080U 19018C   22282.13984703  .00053141  00000+0  14401-2 0  9991
2 44080  97.2974 340.9354 0009286  64.9164 295.3043 15.37430354196118
